GPS BIIR-5  (PRN 22)    
1 26407U 00040A   26133.59880483  .00000027  00000+0  00000+0 0  9990
2 26407  54.8573 216.5361 0121427 302.3476 207.5587  2.00557368189254
GPS BIIR-8  (PRN 16)    
1 27663U 03005A   26133.27759691  .00000024  00000+0  00000+0 0  9997
2 27663  54.8884 216.3559 0148029  53.0086   0.4712  2.00562400170618
GPS BIIR-11 (PRN 19)    
1 28190U 04009A   26133.74174987 -.00000036  00000+0  00000+0 0  9993
2 28190  54.8595 277.0782 0114537 171.5512  11.0195  2.00555769162256
GPS BIIR-13 (PRN 02)    
1 28474U 04045A   26133.15165181 -.00000049  00000+0  00000+0 0  9993
2 28474  55.1565 326.3071 0169928 315.4859 226.0967  2.00554259157722
GPS BIIRM-1 (PRN 17)    
1 28874U 05038A   26133.41951222 -.00000034  00000+0  00000+0 0  9992
2 28874  54.9077 274.5799 0127710 295.9425  41.1639  2.00568027151135
GPS BIIRM-2 (PRN 31)    
1 29486U 06042A   26133.12393664  .00000115  00000+0  00000+0 0  9995
2 29486  54.7054 152.7310 0106151  53.7087 327.8882  2.00571828143693
GPS BIIRM-3 (PRN 12)    
1 29601U 06052A   26133.01820148  .00000023  00000+0  00000+0 0  9993
2 29601  54.9399 215.4003 0085929  90.4979 270.5379  2.00556196142706
GPS BIIRM-4 (PRN 15)    
1 32260U 07047A   26133.32302000  .00000005  00000+0  00000+0 0  9999
2 32260  54.0705  81.5020 0165273  86.7428 275.1200  2.00556966136119
GPS BIIRM-5 (PRN 29)    
1 32384U 07062A   26133.64089252 -.00000035  00000+0  00000+0 0  9993
2 32384  55.0606 275.5408 0035033 163.3905 193.1402  2.00557902134813
GPS BIIRM-6 (PRN 07)    
1 32711U 08012A   26133.23730382  .00000115  00000+0  00000+0 0  9993
2 32711  54.4914 151.3210 0210347 247.3663 110.4538  2.00571473133057
GPS BIIRM-8 (PRN 05)    
1 35752U 09043A   26133.37603103 -.00000072  00000+0  00000+0 0  9994
2 35752  56.1893  28.8193 0053297  81.8694  30.5658  2.00556103122665
GPS BIIF-1  (PRN 25)    
1 36585U 10022A   26133.56303455  .00000038  00000+0  00000+0 0  9997
2 36585  54.2740 209.9570 0126465  66.1117 298.9101  2.00560678116900
GPS BIIF-3  (PRN 24)    
1 38833U 12053A   26133.41661257  .00000113  00000+0  00000+0 0  9996
2 38833  53.5788 145.0238 0178584  65.3053 296.5958  2.00566885 98743
GPS BIIF-4  (PRN 27)    
1 39166U 13023A   26133.28260934 -.00000033  00000+0  00000+0 0  9998
2 39166  54.5327 270.3950 0141823  50.8306 310.3961  2.00563631 95182
GPS BIIF-5  (PRN 30)    
1 39533U 14008A   26133.28377154  .00000113  00000+0  00000+0 0  9991
2 39533  53.6480 150.7433 0084064 230.5864 128.7251  2.00557540 88981
GPS BIIF-6  (PRN 06)    
1 39741U 14026A   26133.06069686 -.00000049  00000+0  00000+0 0  9995
2 39741  56.5146 332.8851 0038637 326.8631  32.9280  2.00563544 87838
GPS BIIF-7  (PRN 09)    
1 40105U 14045A   26133.15176745  .00000028  00000+0  00000+0 0  9993
2 40105  55.3311  89.8601 0032052 118.7710 241.5280  2.00556042 85378
GPS BIIF-8  (PRN 03)    
1 40294U 14068A   26133.52304288 -.00000070  00000+0  00000+0 0  9991
2 40294  56.9648  32.2905 0065988  69.3746 291.3602  2.00573937 84518
GPS BIIF-9  (PRN 26)    
1 40534U 15013A   26133.16026235  .00000041  00000+0  00000+0 0  9999
2 40534  53.1714 205.6264 0108975  40.0205 320.8447  2.00553462 81122
GPS BIIF-10 (PRN 08)    
1 40730U 15033A   26132.82084350 -.00000033  00000+0  00000+0 0  9995
2 40730  54.0113 268.5441 0115000  30.0446 330.5868  2.00558012 79286
GPS BIIF-11 (PRN 10)    
1 41019U 15062A   26133.37680863 -.00000070  00000+0  00000+0 0  9991
2 41019  56.9370  32.1525 0111293 231.3730 127.6556  2.00566928 77139
GPS BIIF-12 (PRN 32)    
1 41328U 16007A   26132.96693977  .00000032  00000+0  00000+0 0  9995
2 41328  55.5031  90.8552 0096124 247.2479 111.7128  2.00553357 75132
GPS BIII-1  (PRN 04)    
1 43873U 18109A   26133.27601630  .00000036  00000+0  00000+0 0  9991
2 43873  55.6614  93.5638 0038033 198.7177 277.7554  2.00560030 54377
GPS BIII-2  (PRN 18)    
1 44506U 19056A   26133.25281141 -.00000051  00000+0  00000+0 0  9994
2 44506  55.6531 332.5316 0060309 197.3951 165.0062  2.00569280 49377
GPS BIII-3  (PRN 23)    
1 45854U 20041A   26132.65692499 -.00000071  00000+0  00000+0 0  9994
2 45854  56.6475  30.3230 0062605 204.7790  27.1781  2.00559403 43326
GPS BIII-4  (PRN 14)    
1 46826U 20078A   26133.42120081  .00000032  00000+0  00000+0 0  9999
2 46826  53.9849 212.1890 0071966 206.1961 192.8211  2.00564808 40813
GPS BIII-5  (PRN 11)    
1 48859U 21054A   26133.36056227 -.00000053  00000+0  00000+0 0  9999
2 48859  55.1902 333.8601 0024454 229.2119 311.8696  2.00571165 36052
GPS BIII-6  (PRN 28)    
1 55268U 23009A   26133.55116117  .00000117  00000+0  00000+0 0  9999
2 55268  55.1171 149.8805 0005990 314.6521  41.8863  2.00573844 24546
GPS BIII-7  (PRN 01)    
1 62339U 24242A   26132.18781948 -.00000054  00000+0  00000+0 0  9995
2 62339  54.8657 335.6414 0017084   3.1785 171.5342  2.00570893 10536
GPS BIII-8  (PRN 21)    
1 64202U 25116A   26120.52613794 -.00000106  00000+0  00000+0 0  9993
2 64202  55.2044  33.0485 0009186 336.4638 239.4024  2.00549603  6915
GPS BIII-9  (PRN 20)    
1 67588U 26017A   26133.29810109  .00000027  00000+0  00000+0 0  9992
2 67588  55.0667  90.1549 0023003 255.4228 104.2985  2.00571815430914
